{
    "links": {
        "self": "http://www.neowsapp.com/rest/v1/neo/3789620?api_key=iIulBulltgU6a56xZRHN4H3l9WmuAYTsLGpBGhQ2"
    },
    "id": "3789620",
    "neo_reference_id": "3789620",
    "name": "(2017 VG34)",
    "designation": "2017 VG34",
    "nasa_jpl_url": "http://ssd.jpl.nasa.gov/sbdb.cgi?sstr=3789620",
    "absolute_magnitude_h": 26.1,
    "estimated_diameter": {
        "kilometers": {
            "estimated_diameter_min": 0.0160160338,
            "estimated_diameter_max": 0.0358129403
        },
        "meters": {
            "estimated_diameter_min": 16.0160337979,
            "estimated_diameter_max": 35.8129403019
        },
        "miles": {
            "estimated_diameter_min": 0.0099518989,
            "estimated_diameter_max": 0.0222531225
        },
        "feet": {
            "estimated_diameter_min": 52.5460443254,
            "estimated_diameter_max": 117.4965270602
        }
    },
    "is_potentially_hazardous_asteroid": false,
    "close_approach_data": [
        {
            "close_approach_date": "2017-10-31",
            "close_approach_date_full": "2017-Oct-31 19:23",
            "epoch_date_close_approach": 1509477780000,
            "relative_velocity": {
                "kilometers_per_second": "5.4750905415",
                "kilometers_per_hour": "19710.325949557",
                "miles_per_hour": "12247.2300323789"
            },
            "miss_distance": {
                "astronomical": "0.1021096422",
                "lunar": "39.7206508158",
                "kilometers": "15275384.979582114",
                "miles": "9491684.0910726132"
            },
            "orbiting_body": "Earth"
        }
    ],
    "orbital_data": {
        "orbit_id": "1",
        "orbit_determination_date": "2017-11-24 16:12:07",
        "first_observation_date": "2017-11-15",
        "last_observation_date": "2017-11-23",
        "data_arc_in_days": 8,
        "observations_used": 21,
        "orbit_uncertainty": "9",
        "minimum_orbit_intersection": ".101019",
        "jupiter_tisserand_invariant": "3.297",
        "epoch_osculation": "2458074.5",
        "eccentricity": ".5465934152589861",
        "semi_major_axis": "2.412505075065637",
        "inclination": ".542512842897362",
        "ascending_node_longitude": "240.5896536323308",
        "orbital_period": "1368.676404702053",
        "perihelion_distance": "1.093845686755874",
        "perihelion_argument": "157.8465798190192",
        "aphelion_distance": "3.7311644633754",
        "perihelion_time": "2458059.047126270778",
        "mean_anomaly": "4.064536016992953",
        "mean_motion": ".2630278411779651",
        "equinox": "J2000",
        "orbit_class": {
            "orbit_class_type": "AMO",
            "orbit_class_description": "Near-Earth asteroid orbits similar to that of 1221 Amor",
            "orbit_class_range": "1.017 AU < q (perihelion) < 1.3 AU"
        }
    },
    "is_sentry_object": false
}